{"type": "FeatureCollection", "features": [{"type": "Feature", "properties": {"norad_id": 25730, "name": "FENGYUN 1C", "group": "fengyun-1c-debris", "lat": -40.94742379786482, "lon": -136.33147239494184, "alt_km": 818.175726363741, "timestamp": "2025-12-11T10:53:16.157502+00:00", "meta": {"OBJECT_NAME": "FENGYUN 1C", "OBJECT_ID": "1999-025A", "EPOCH": "2025-12-11T03:07:03.258912", "MEAN_MOTION": 14.26036088, "ECCENTRICITY": 0.0010743, "INCLINATION": 98.8836, "RA_OF_ASC_NODE": 51.1399, "ARG_OF_PERICENTER": 72.6316, "MEAN_ANOMALY": 287.6038, "EPHEMERIS_TYPE": 0, "CLASSIFICATION_TYPE": "U", "NORAD_CAT_ID": 25730, "ELEMENT_SET_NO": 999, "REV_AT_EPOCH": 37114, "BSTAR": 0.0016998, "MEAN_MOTION_DOT": 4.017e-05, "MEAN_MOTION_DDOT": 0}, "tle": {"line1": "1 25730U 99025A   25345.12989883  .00004017  00000+0  16998-2 0  9995", "line2": "2 25730  98.8836  51.1399 0010743  72.6316 287.6038 14.26036088371147"}}, "geometry": {"type": "Point", "coordinates": [-136.33147239494184, -40.94742379786482]}}, {"type": "Feature", "properties": {"norad_id": 29733, "name": "FENGYUN 1C DEB", "group": "fengyun-1c-debris", "lat": 51.90158535367179, "lon": 29.7506825050988, "alt_km": 1650.393990744923, "timestamp": "2025-12-11T10:53:16.157525+00:00", "meta": {"OBJECT_NAME": "FENGYUN 1C DEB", "OBJECT_ID": "1999-025X", "EPOCH": "2025-12-10T22:34:02.048736", "MEAN_MOTION": 12.96460663, "ECCENTRICITY": 0.0569721, "INCLINATION": 99.2245, "RA_OF_ASC_NODE": 41.2766, "ARG_OF_PERICENTER": 206.122, "MEAN_ANOMALY": 335.2018, "EPHEMERIS_TYPE": 0, "CLASSIFICATION_TYPE": "U", "NORAD_CAT_ID": 29733, "ELEMENT_SET_NO": 999, "REV_AT_EPOCH": 89096, "BSTAR": 0.0024829, "MEAN_MOTION_DOT": 1.464e-05, "MEAN_MOTION_DDOT": 0}, "tle": {"line1": "1 29733U 99025X   25344.94030149  .00001464  00000+0  24829-2 0  9998", "line2": "2 29733  99.2245  41.2766 0569721 206.1220 335.2018 12.96460663890963"}}, "geometry": {"type": "Point", "coordinates": [29.7506825050988, 51.90158535367179]}}, {"type": "Feature", "properties": {"norad_id": 29734, "name": "FENGYUN 1C DEB", "group": "fengyun-1c-debris", "lat": -71.56291295694146, "lon": 66.59253873188611, "alt_km": 1523.289340217857, "timestamp": "2025-12-11T10:53:16.157539+00:00", "meta": {"OBJECT_NAME": "FENGYUN 1C DEB", "OBJECT_ID": "1999-025Y", "EPOCH": "2025-12-10T18:48:22.639968", "MEAN_MOTION": 12.9128111, "ECCENTRICITY": 0.06150891, "INCLINATION": 99.1691, "RA_OF_ASC_NODE": 275.0086, "ARG_OF_PERICENTER": 16.2404, "MEAN_ANOMALY": 10.5253, "EPHEMERIS_TYPE": 0, "CLASSIFICATION_TYPE": "U", "NORAD_CAT_ID": 29734, "ELEMENT_SET_NO": 999, "REV_AT_EPOCH": 88523, "BSTAR": 0.0071165143, "MEAN_MOTION_DOT": 4.394e-05, "MEAN_MOTION_DDOT": 0}, "tle": {"line1": "1 29734U 99025Y   25344.78359537  .00004394  00000+0  71165-2 0  9996", "line2": "2 29734  99.1691 275.0086 0615089  16.2404  10.5253 12.91281110885234"}}, "geometry": {"type": "Point", "coordinates": [66.59253873188611, -71.56291295694146]}}, {"type": "Feature", "properties": {"norad_id": 29735, "name": "FENGYUN 1C DEB", "group": "fengyun-1c-debris", "lat": -76.81267951184024, "lon": 35.695385549641195, "alt_km": 1261.5829093250295, "timestamp": "2025-12-11T10:53:16.157551+00:00", "meta": {"OBJECT_NAME": "FENGYUN 1C DEB", "OBJECT_ID": "1999-025Z", "EPOCH": "2025-12-10T14:44:02.054688", "MEAN_MOTION": 12.75041724, "ECCENTRICITY": 0.0697603, "INCLINATION": 99.391, "RA_OF_ASC_NODE": 259.9248, "ARG_OF_PERICENTER": 180.0439, "MEAN_ANOMALY": 180.0705, "EPHEMERIS_TYPE": 0, "CLASSIFICATION_TYPE": "U", "NORAD_CAT_ID": 29735, "ELEMENT_SET_NO": 999, "REV_AT_EPOCH": 87388, "BSTAR": 0.0017167, "MEAN_MOTION_DOT": 9.68e-06, "MEAN_MOTION_DDOT": 0}, "tle": {"line1": "1 29735U 99025Z   25344.61391267  .00000968  00000+0  17167-2 0  9990", "line2": "2 29735  99.3910 259.9248 0697603 180.0439 180.0705 12.75041724873882"}}, "geometry": {"type": "Point", "coordinates": [35.695385549641195, -76.81267951184024]}}, {"type": "Feature", "properties": {"norad_id": 29736, "name": "FENGYUN 1C DEB", "group": "fengyun-1c-debris", "lat": 79.95455272345106, "lon": 54.36171228332164, "alt_km": 1562.1574243359973, "timestamp": "2025-12-11T10:53:16.157564+00:00", "meta": {"OBJECT_NAME": "FENGYUN 1C DEB", "OBJECT_ID": "1999-025AA", "EPOCH": "2025-12-10T23:44:32.793216", "MEAN_MOTION": 12.57485914, "ECCENTRICITY": 0.0725504, "INCLINATION": 99.4018, "RA_OF_ASC_NODE": 164.7206, "ARG_OF_PERICENTER": 202.4432, "MEAN_ANOMALY": 317.8508, "EPHEMERIS_TYPE": 0, "CLASSIFICATION_TYPE": "U", "NORAD_CAT_ID": 29736, "ELEMENT_SET_NO": 999, "REV_AT_EPOCH": 86522, "BSTAR": 0.003025, "MEAN_MOTION_DOT": 1.348e-05, "MEAN_MOTION_DDOT": 0}, "tle": {"line1": "1 29736U 99025AA  25344.98926844  .00001348  00000+0  30250-2 0  9997", "line2": "2 29736  99.4018 164.7206 0725504 202.4432 317.8508 12.57485914865227"}}, "geometry": {"type": "Point", "coordinates": [54.36171228332164, 79.95455272345106]}}, {"type": "Feature", "properties": {"norad_id": 29737, "name": "FENGYUN 1C DEB", "group": "fengyun-1c-debris", "lat": 19.56454514728837, "lon": 124.17150291537995, "alt_km": 884.1981575834197, "timestamp": "2025-12-11T10:53:16.157575+00:00", "meta": {"OBJECT_NAME": "FENGYUN 1C DEB", "OBJECT_ID": "1999-025AB", "EPOCH": "2025-12-11T02:50:32.180928", "MEAN_MOTION": 12.65647095, "ECCENTRICITY": 0.0694579, "INCLINATION": 99.5808, "RA_OF_ASC_NODE": 300.4506, "ARG_OF_PERICENTER": 142.0487, "MEAN_ANOMALY": 288.8622, "EPHEMERIS_TYPE": 0, "CLASSIFICATION_TYPE": "U", "NORAD_CAT_ID": 29737, "ELEMENT_SET_NO": 999, "REV_AT_EPOCH": 86848, "BSTAR": 0.0023744, "MEAN_MOTION_DOT": 1.122e-05, "MEAN_MOTION_DDOT": 0}, "tle": {"line1": "1 29737U 99025AB  25345.11842802  .00001122  00000+0  23744-2 0  9995", "line2": "2 29737  99.5808 300.4506 0694579 142.0487 288.8622 12.65647095868488"}}, "geometry": {"type": "Point", "coordinates": [124.17150291537995, 19.56454514728837]}}, {"type": "Feature", "properties": {"norad_id": 29738, "name": "FENGYUN 1C DEB", "group": "fengyun-1c-debris", "lat": -16.393969832849837, "lon": -30.183895489789307, "alt_km": 1491.8281108767915, "timestamp": "2025-12-11T10:53:16.157587+00:00", "meta": {"OBJECT_NAME": "FENGYUN 1C DEB", "OBJECT_ID": "1999-025AC", "EPOCH": "2025-12-10T22:19:38.976672", "MEAN_MOTION": 12.61023472, "ECCENTRICITY": 0.0864448, "INCLINATION": 99.4096, "RA_OF_ASC_NODE": 152.1843, "ARG_OF_PERICENTER": 298.3993, "MEAN_ANOMALY": 53.2594, "EPHEMERIS_TYPE": 0, "CLASSIFICATION_TYPE": "U", "NORAD_CAT_ID": 29738, "ELEMENT_SET_NO": 999, "REV_AT_EPOCH": 86194, "BSTAR": 0.0032448, "MEAN_MOTION_DOT": 2.434e-05, "MEAN_MOTION_DDOT": 0}, "tle": {"line1": "1 29738U 99025AC  25344.93031223  .00002434  00000+0  32448-2 0  9990", "line2": "2 29738  99.4096 152.1843 0864448 298.3993  53.2594 12.61023472861943"}}, "geometry": {"type": "Point", "coordinates": [-30.183895489789307, -16.393969832849837]}}, {"type": "Feature", "properties": {"norad_id": 29740, "name": "FENGYUN 1C DEB", "group": "fengyun-1c-debris", "lat": 79.80125102964679, "lon": 135.09520587777004, "alt_km": 1914.8921407482476, "timestamp": "2025-12-11T10:53:16.157598+00:00", "meta": {"OBJECT_NAME": "FENGYUN 1C DEB", "OBJECT_ID": "1999-025AE", "EPOCH": "2025-12-11T00:24:00.006336", "MEAN_MOTION": 12.08327625, "ECCENTRICITY": 0.0974944, "INCLINATION": 99.0444, "RA_OF_ASC_NODE": 197.0656, "ARG_OF_PERICENTER": 202.1529, "MEAN_ANOMALY": 153.4519, "EPHEMERIS_TYPE": 0, "CLASSIFICATION_TYPE": "U", "NORAD_CAT_ID": 29740, "ELEMENT_SET_NO": 999, "REV_AT_EPOCH": 82914, "BSTAR": 0.001588, "MEAN_MOTION_DOT": 5.85e-06, "MEAN_MOTION_DDOT": 0}, "tle": {"line1": "1 29740U 99025AE  25345.01666674  .00000585  00000+0  15880-2 0  9993", "line2": "2 29740  99.0444 197.0656 0974944 202.1529 153.4519 12.08327625829144"}}, "geometry": {"type": "Point", "coordinates": [135.09520587777004, 79.80125102964679]}}, {"type": "Feature", "properties": {"norad_id": 29741, "name": "FENGYUN 1C DEB", "group": "fengyun-1c-debris", "lat": -9.674698740068182, "lon": -138.26859821378477, "alt_km": 1404.908536664554, "timestamp": "2025-12-11T10:53:16.157609+00:00", "meta": {"OBJECT_NAME": "FENGYUN 1C DEB", "OBJECT_ID": "1999-025AF", "EPOCH": "2025-12-10T15:05:12.289344", "MEAN_MOTION": 12.00922425, "ECCENTRICITY": 0.1024287, "INCLINATION": 99.1746, "RA_OF_ASC_NODE": 219.5621, "ARG_OF_PERICENTER": 68.0525, "MEAN_ANOMALY": 328.1045, "EPHEMERIS_TYPE": 0, "CLASSIFICATION_TYPE": "U", "NORAD_CAT_ID": 29741, "ELEMENT_SET_NO": 999, "REV_AT_EPOCH": 52158, "BSTAR": 0.0064237, "MEAN_MOTION_DOT": 2.495e-05, "MEAN_MOTION_DDOT": 0}, "tle": {"line1": "1 29741U 99025AF  25344.62861446  .00002495  00000+0  64237-2 0  9996", "line2": "2 29741  99.1746 219.5621 1024287  68.0525 328.1045 12.00922425521588"}}, "geometry": {"type": "Point", "coordinates": [-138.26859821378477, -9.674698740068182]}}, {"type": "Feature", "properties": {"norad_id": 29748, "name": "FENGYUN 1C DEB", "group": "fengyun-1c-debris", "lat": -30.887230174739422, "lon": -77.37176083131207, "alt_km": 1209.7305225130958, "timestamp": "2025-12-11T10:53:16.157635+00:00", "meta": {"OBJECT_NAME": "FENGYUN 1C DEB", "OBJECT_ID": "1999-025AN", "EPOCH": "2025-12-08T18:28:11.177184", "MEAN_MOTION": 11.89764026, "ECCENTRICITY": 0.08397796, "INCLINATION": 99.8026, "RA_OF_ASC_NODE": 274.6986, "ARG_OF_PERICENTER": 16.7533, "MEAN_ANOMALY": 345.9549, "EPHEMERIS_TYPE": 0, "CLASSIFICATION_TYPE": "U", "NORAD_CAT_ID": 29748, "ELEMENT_SET_NO": 999, "REV_AT_EPOCH": 78686, "BSTAR": 0.18763308, "MEAN_MOTION_DOT": 0.00036035, "MEAN_MOTION_DDOT": 0}, "tle": {"line1": "1 29748U 99025AN  25342.76957381  .00036035  00000+0  18763+0 0  9997", "line2": "2 29748  99.8026 274.6986 0839779  16.7533 345.9549 11.89764026786864"}}, "geometry": {"type": "Point", "coordinates": [-77.37176083131207, -30.887230174739422]}}]}